{"fetched_at":"2026-03-30T06:02:59Z","count":15439,"tles":[{"name":"STARLINK-3984","line1":"1 52621U 22052Z   26087.67866631  .00000058  00000+0  21759-4 0  9993","line2":"2 52621  53.2170 183.8750 0001332  88.9303 271.1841 15.08843611213858","category":"Starlink"}]}