{
  "norad_id": 52621,
  "name": "STARLINK-3984",
  "history": [
    {
      "epoch": "2026-03-28T16:17:16.769184",
      "apogee_km": 540.6542268735129,
      "perigee_km": 538.8104763339234,
      "latitude_deg": -42.119506911881594,
      "longitude_deg": -132.74803423974663,
      "semi_major_axis_km": 6917.869351603718,
      "eccentricity": 0.00013326,
      "inclination_deg": 53.217,
      "raan_deg": 183.875,
      "arg_perigee_deg": 88.9303,
      "mean_anomaly_deg": 271.1841,
      "mean_motion_rev_day": 15.08843611
    }
  ]
}